{
  "norad_id": 63680,
  "name": "STARLINK-33887",
  "history": [
    {
      "epoch": "2026-03-28T21:41:18.472992",
      "apogee_km": 484.1566578483744,
      "perigee_km": 481.8115266590421,
      "latitude_deg": 32.295148134961956,
      "longitude_deg": -85.24614112009294,
      "semi_major_axis_km": 6861.1210922537075,
      "eccentricity": 0.0001709,
      "inclination_deg": 42.9995,
      "raan_deg": 281.9553,
      "arg_perigee_deg": 270.9198,
      "mean_anomaly_deg": 89.1458,
      "mean_motion_rev_day": 15.27601709
    }
  ]
}